NORAD_CAT_ID,OBJECT_NAME,OBJECT_TYPE,EPOCH,MEAN_MOTION,ECCENTRICITY,INCLINATION,RA_OF_ASC_NODE,ARG_OF_PERICENTER,MEAN_ANOMALY,BSTAR,MEAN_MOTION_DOT,MEAN_MOTION_DDOT,TLE_LINE0,TLE_LINE1,TLE_LINE2,SEMIMAJOR_AXIS,PERIOD,APOGEE,PERIGEE,DECAYED
53164.0,STARLINK-4116,PAYLOAD,2024-05-15 13:43:39,15.0886815,0.0001941,53.217,260.9694,112.0225,248.0973,0.00023685,3.486e-05,0.0,0 STARLINK-4116,1 53164U 22083AJ  24136.57198373  .00003486  00000-0  23685-3 0  9991,2 53164  53.2170 260.9694 0001941 112.0225 248.0973 15.08868150101257,6917.794,95.436,541.002,538.317,0.0
53164.0,STARLINK-4116,PAYLOAD,2024-05-15 15:19:02,15.08866465,0.0001912,53.2173,260.6747,107.143,252.9772,0.00024817,3.667e-05,0.0,0 STARLINK-4116,1 53164U 22083AJ  24136.63822387  .00003667  00000-0  24817-3 0  9996,2 53164  53.2173 260.6747 0001912 107.1430 252.9772 15.08866465101266,6917.799,95.436,540.987,538.342,0.0
53164.0,STARLINK-4116,PAYLOAD,2024-05-16 11:59:03,15.08845768,0.0001534,53.2179,256.8125,94.0996,266.0171,9.9772e-05,1.3e-05,0.0,0 STARLINK-4116,1 53164U 22083AJ  24137.49934233  .00001300  00000-0  99772-4 0  9990,2 53164  53.2179 256.8125 0001534  94.0996 266.0171 15.08845768102027,6917.863,95.437,540.789,538.667,0.0
53164.0,STARLINK-4116,PAYLOAD,2024-05-17 11:49:50,15.08839285,0.0001548,53.2163,252.3464,87.7077,272.4092,0.00011238,1.501e-05,0.0,0 STARLINK-4116,1 53164U 22083AJ  24138.49294404  .00001501  00000-0  11238-3 0  9993,2 53164  53.2163 252.3464 0001548  87.7077 272.4092 15.08839285102177,6917.883,95.438,540.818,538.677,0.0
53164.0,STARLINK-4116,PAYLOAD,2024-05-17 16:35:59,15.08844928,0.0002704,53.2162,251.4541,83.8579,276.2721,0.00042767,6.526e-05,0.0,0 STARLINK-4116,1 53164U 22083AJ  24138.69166577  .00006526  00000-0  42767-3 0  9997,2 53164  53.2162 251.4541 0002704  83.8579 276.2721 15.08844928101575,6917.865,95.437,541.601,537.86,0.0
53164.0,STARLINK-4116,PAYLOAD,2024-05-18 13:16:00,15.08847507,0.0001637,53.2149,247.5913,98.1803,261.9375,0.00063768,9.877e-05,0.0,0 STARLINK-4116,1 53164U 22083AJ  24139.55278243  .00009877  00000-0  63768-3 0  9993,2 53164  53.2149 247.5913 0001637  98.1803 261.9375 15.08847507102339,6917.857,95.437,540.855,538.59,0.0
53164.0,STARLINK-4116,PAYLOAD,2024-05-18 14:51:23,15.08860498,0.0001331,53.2159,247.2902,109.6295,250.4841,0.0011801,0.00018554,0.0,0 STARLINK-4116,1 53164U 22083AJ  24139.61901817  .00018554  00000-0  11801-2 0  9992,2 53164  53.2159 247.2902 0001331 109.6295 250.4841 15.08860498102345,6917.818,95.436,540.603,538.762,0.0
53164.0,STARLINK-4116,PAYLOAD,2024-05-19 00:23:42,15.08832207,0.0002102,53.2151,245.5061,79.543,280.5798,-3.344e-05,-8.2e-06,0.0,0 STARLINK-4116,1 53164U 22083AJ  24140.01646942 -.00000820  00000-0 -33440-4 0  9997,2 53164  53.2151 245.5061 0002102  79.5430 280.5798 15.08832207102406,6917.904,95.438,541.223,538.315,0.0
53164.0,STARLINK-4116,PAYLOAD,2024-05-19 13:06:49,15.08803926,0.0001482,53.2158,243.1278,83.9215,276.1946,-0.00033926,-5.678e-05,0.0,0 STARLINK-4116,1 53164U 22083AJ  24140.54640235 -.00005678  00000-0 -33926-3 0  9998,2 53164  53.2158 243.1278 0001482  83.9215 276.1946 15.08803926101857,6917.991,95.44,540.881,538.83,0.0
53164.0,STARLINK-4116,PAYLOAD,2024-05-19 16:17:35,15.08810968,0.0001681,53.2175,242.5295,91.8001,268.3183,0.00019542,2.821e-05,0.0,0 STARLINK-4116,1 53164U 22083AJ  24140.67888468  .00002821  00000-0  19542-3 0  9997,2 53164  53.2175 242.5295 0001681  91.8001 268.3183 15.08810968102503,6917.969,95.439,540.997,538.671,0.0
53164.0,STARLINK-4116,PAYLOAD,2024-05-20 12:57:36,15.0887542,0.000152,53.2164,238.6663,76.3104,283.8058,0.0021245,0.00033718,0.0,0 STARLINK-4116,1 53164U 22083AJ  24141.54000139  .00033718  00000-0  21245-2 0  9996,2 53164  53.2164 238.6663 0001520  76.3104 283.8058 15.08875420102631,6917.772,95.435,540.689,538.586,0.0
53164.0,STARLINK-4116,PAYLOAD,2024-05-21 12:48:23,15.0884905,0.0001193,53.2168,234.2058,67.8433,292.2686,0.0013195,0.00020779,0.0,0 STARLINK-4116,1 53164U 22083AJ  24142.53360004  .00020779  00000-0  13195-2 0  9994,2 53164  53.2168 234.2058 0001193  67.8433 292.2686 15.08849050102788,6917.853,95.437,540.543,538.892,0.0
53164.0,STARLINK-4116,PAYLOAD,2024-05-22 11:03:47,15.08839608,0.0001487,53.2171,230.0464,94.0507,266.0655,0.00035895,5.429e-05,0.0,0 STARLINK-4116,1 53164U 22083AJ  24143.46096394  .00005429  00000-0  35895-3 0  9992,2 53164  53.2171 230.0464 0001487  94.0507 266.0655 15.08839608102926,6917.882,95.438,540.775,538.718,0.0
53164.0,STARLINK-4116,PAYLOAD,2024-05-23 12:29:57,15.08842742,0.0001581,53.2171,225.2898,100.5248,259.5922,0.00020701,3.008e-05,0.0,0 STARLINK-4116,1 53164U 22083AJ  24144.52080383  .00003008  00000-0  20701-3 0  9992,2 53164  53.2171 225.2898 0001581 100.5248 259.5922 15.08842742103088,6917.872,95.437,540.831,538.643,0.0
53164.0,STARLINK-4116,PAYLOAD,2024-05-24 09:09:58,15.08839858,0.0001559,53.2154,221.4227,95.4191,264.6979,6.8536e-05,8.03e-06,0.0,0 STARLINK-4116,1 53164U 22083AJ  24145.38192509  .00000803  00000-0  68536-4 0  9990,2 53164  53.2154 221.4227 0001559  95.4191 264.6979 15.08839858103215,6917.881,95.438,540.824,538.667,0.0
53164.0,STARLINK-4116,PAYLOAD,2024-05-24 21:53:03,15.08844858,0.0001234,53.2156,219.0433,94.2794,265.8339,0.00018167,2.605e-05,0.0,0 STARLINK-4116,1 53164U 22083AJ  24145.91184219  .00002605  00000-0  18167-3 0  9994,2 53164  53.2156 219.0433 0001234  94.2794 265.8339 15.08844858102662,6917.866,95.437,540.584,538.877,0.0
53164.0,STARLINK-4116,PAYLOAD,2024-05-25 04:14:34,15.0886784,0.0001401,53.2156,217.8537,108.4961,251.6183,0.00039834,6.062e-05,0.0,0 STARLINK-4116,1 53164U 22083AJ  24146.17679073  .00006062  00000-0  39834-3 0  9995,2 53164  53.2156 217.8537 0001401 108.4961 251.6183 15.08867840103334,6917.795,95.436,540.629,538.691,0.0
53164.0,STARLINK-4116,PAYLOAD,2024-05-25 12:11:31,15.08842724,0.0001498,53.2153,216.3671,83.7414,276.3749,0.00010337,1.358e-05,0.0,0 STARLINK-4116,1 53164U 22083AJ  24146.50800537  .00001358  00000-0  10337-3 0  9993,2 53164  53.2153 216.3671 0001498  83.7414 276.3749 15.08842724103389,6917.872,95.437,540.773,538.701,0.0
53164.0,STARLINK-4116,PAYLOAD,2024-05-25 13:46:54,15.08845878,0.0001472,53.2153,216.0688,94.1083,266.0078,9.4152e-05,1.211e-05,0.0,0 STARLINK-4116,1 53164U 22083AJ  24146.57424211  .00001211  00000-0  94152-4 0  9997,2 53164  53.2153 216.0688 0001472  94.1083 266.0078 15.08845878102769,6917.862,95.437,540.746,538.709,0.0
53164.0,STARLINK-4116,PAYLOAD,2024-05-26 04:05:23,15.08825103,0.0001292,53.2156,213.3941,90.522,269.592,0.00034661,5.23e-05,0.0,0 STARLINK-4116,1 53164U 22083AJ  24147.17041425  .00005230  00000-0  34661-3 0  9999,2 53164  53.2156 213.3941 0001292  90.5220 269.5920 15.08825103103480,6917.926,95.438,540.685,538.897,0.0
53164.0,STARLINK-4116,PAYLOAD,2024-05-26 12:02:18,15.08843401,0.0001436,53.2161,211.9071,83.6619,276.4537,0.00011421,1.53e-05,0.0,0 STARLINK-4116,1 53164U 22083AJ  24147.50160540  .00001530  00000-0  11421-3 0  9994,2 53164  53.2161 211.9071 0001436  83.6619 276.4537 15.08843401103537,6917.87,95.437,540.728,538.742,0.0
53164.0,STARLINK-4116,PAYLOAD,2024-05-26 21:34:38,15.08827937,0.0002199,53.216,210.124,46.2317,313.8856,0.00046988,7.196e-05,0.0,0 STARLINK-4116,1 53164U 22083AJ  24147.89905353  .00007196  00000-0  46988-3 0  9995,2 53164  53.2160 210.1240 0002199  46.2317 313.8856 15.08827937102964,6917.917,95.438,541.304,538.261,0.0
53164.0,STARLINK-4116,PAYLOAD,2024-05-27 03:56:10,15.08824262,0.0001164,53.2152,208.9336,91.1831,268.9294,-0.00013954,-2.507e-05,0.0,0 STARLINK-4116,1 53164U 22083AJ  24148.16401563 -.00002507  00000-0 -13954-3 0  9990,2 53164  53.2152 208.9336 0001164  91.1831 268.9294 15.08824262103636,6917.928,95.439,540.599,538.988,0.0
53164.0,STARLINK-4116,PAYLOAD,2024-05-27 10:17:43,15.08824905,0.000141,53.215,207.7453,81.3512,278.764,-9.0412e-05,-1.726e-05,0.0,0 STARLINK-4116,1 53164U 22083AJ  24148.42898122 -.00001726  00000-0 -90412-4 0  9997,2 53164  53.2150 207.7453 0001410  81.3512 278.7640 15.08824905103045,6917.927,95.439,540.767,538.816,0.0
53164.0,STARLINK-4116,PAYLOAD,2024-05-28 03:46:58,15.08835676,0.0001305,53.2157,204.4724,88.9858,271.1284,7.6122e-05,9.24e-06,0.0,0 STARLINK-4116,1 53164U 22083AJ  24149.15762062  .00000924  00000-0  76122-4 0  9990,2 53164  53.2157 204.4724 0001305  88.9858 271.1284 15.08835676103785,6917.894,95.438,540.661,538.856,0.0
53164.0,STARLINK-4116,PAYLOAD,2024-05-28 10:08:30,15.08840845,0.0001554,53.2164,203.2861,76.0668,284.0497,0.00018819,2.708e-05,0.0,0 STARLINK-4116,1 53164U 22083AJ  24149.42258028  .00002708  00000-0  18819-3 0  9992,2 53164  53.2164 203.2861 0001554  76.0668 284.0497 15.08840845103193,6917.878,95.438,540.818,538.668,0.0
53164.0,STARLINK-4116,PAYLOAD,2024-05-29 09:59:18,15.08840039,0.0001314,53.2155,198.8219,81.4351,278.679,0.0009992,0.0001565,0.0,0 STARLINK-4116,1 53164U 22083AJ  24150.41618080  .00015650  00000-0  99920-3 0  9993,2 53164  53.2155 198.8219 0001314  81.4351 278.6790 15.08840039103978,6917.88,95.438,540.654,538.836,0.0
53164.0,STARLINK-4116,PAYLOAD,2024-05-29 13:10:03,15.0885954,0.0001418,53.2154,198.2286,81.6679,278.4474,0.00077447,0.00012066,0.0,0 STARLINK-4116,1 53164U 22083AJ  24150.54865131  .00012066  00000-0  77447-3 0  9996,2 53164  53.2154 198.2286 0001418  81.6679 278.4474 15.08859540103362,6917.821,95.436,540.667,538.705,0.0
53164.0,STARLINK-4116,PAYLOAD,2024-05-30 03:28:31,15.08856608,0.000132,53.2149,195.5473,86.4779,273.6364,0.00010825,1.436e-05,0.0,0 STARLINK-4116,1 53164U 22083AJ  24151.14480495  .00001436  00000-0  10825-3 0  9995,2 53164  53.2149 195.5473 0001320  86.4779 273.6364 15.08856608104087,6917.83,95.437,540.608,538.781,0.0
53164.0,STARLINK-4116,PAYLOAD,2024-05-30 09:50:03,15.08854082,0.0001288,53.2151,194.3573,98.9765,261.1373,3.0296e-05,1.94e-06,0.0,0 STARLINK-4116,1 53164U 22083AJ  24151.40976276  .00000194  00000-0  30296-4 0  9996,2 53164  53.2151 194.3573 0001288  98.9765 261.1373 15.08854082103494,6917.837,95.437,540.593,538.811,0.0
